TDRS 3                  
1 19548U 88091B   22208.35254720 -.00000296  00000+0  00000+0 0  9991
2 19548  13.6853 351.0026 0033688 329.4771  62.4783  1.00279401111145
HST                     
1 20580U 90037B   22208.87538418  .00001191  00000+0  59285-4 0  9996
2 20580  28.4693 260.9356 0002815 109.1858  56.4570 15.10713627572338
TDRS 5                  
1 21639U 91054B   22209.17096015  .00000087  00000+0  00000+0 0  9997
2 21639  14.2340   4.3244 0023462   3.2833 192.3268  1.00281073113468
TDRS 6                  
1 22314U 93003B   22208.41669094 -.00000295  00000+0  00000+0 0  9995
2 22314  14.1330   7.5762 0012676 123.8127 277.6267  1.00265487108165
TDRS 7                  
1 23613U 95035B   22208.62542956 -.00000199  00000+0  00000+0 0  9998
2 23613  13.9619 358.2662 0028833  57.1957 199.6569  1.00276593 99002
ISS (ZARYA)             
1 25544U 98067A   22209.28094632  .00006188  00000+0  11570-3 0  9998
2 25544  51.6432 133.0378 0005185  57.5015  84.2534 15.50151296351550
LANDSAT 7               
1 25682U 99020A   22209.14643094  .00000241  00000+0  59785-4 0  9993
2 25682  97.9763 255.6763 0001348  71.2617 288.8737 14.59777885238502
TERRA                   
1 25994U 99068A   22209.11856323  .00000149  00000+0  42877-4 0  9990
2 25994  98.1354 280.1035 0001465  99.1731 283.5377 14.57165574202549
TDRS 8                  
1 26388U 00034A   22208.56004120 -.00000237  00000+0  00000+0 0  9997
2 26388  10.4283  42.2748 0020652 352.9547 200.9619  1.00273909 80932
TIMED                   
1 26998U 01055B   22208.69755593  .00000360  00000+0  42477-4 0  9994
2 26998  74.0711 199.4648 0000835 300.2752  59.8346 14.88729827118991
TDRS 9                  
1 27389U 02011A   22208.45816501 -.00000290  00000+0  00000+0 0  9997
2 27389   9.1019  60.4541 0023082 303.1677  44.0479  1.00277799 76196
AQUA                    
1 27424U 02022A   22209.15195139  .00000257  00000+0  66787-4 0  9995
2 27424  98.2484 150.6605 0001984  88.9469  36.0114 14.57340825 76158
TDRS 10                 
1 27566U 02055A   22208.79516459  .00000088  00000+0  00000+0 0  9992
2 27566   8.2737  49.7443 0007054 353.1084  17.8119  1.00277840 71998
SORCE                   
1 27651U 03004A   22209.08500718  .00000589  00000+0  73790-4 0  9993
2 27651  39.9968 350.6038 0022513  35.7579 324.4713 14.90007164 59157
AURA                    
1 28376U 04026A   22208.87387687  .00000258  00000+0  67414-4 0  9996
2 28376  98.2101 151.6307 0001475  86.4828 273.6539 14.57099994959112
SWIFT                   
1 28485U 04047A   22209.15730787  .00002336  00000+0  12299-3 0  9994
2 28485  20.5581  24.6016 0010797  94.1791 265.9878 15.06633676969770
THEMIS A                
1 30580U 07004A   22209.03393043 -.00000548  00000+0  14670-1 0  9993
2 30580  14.0791 341.4612 8381675 173.5647 219.8080  0.87835876 53482
THEMIS D                
1 30797U 07004D   22209.11631904 -.00000427  00000+0  00000+0 0  9999
2 30797   9.8925 330.9257 8341228 187.2597 257.0705  0.87838209 53017
THEMIS E                
1 30798U 07004E   22208.77816051 -.00000435  00000+0  00000+0 0  9998
2 30798  10.7634 344.2147 8329206 176.0756 139.6006  0.87841588 53425
AIM                     
1 31304U 07015A   22208.73812213  .00004342  00000+0  21573-3 0  9998
2 31304  97.8540 129.4566 0003443 222.3283 137.7684 15.18231429837308
FGRST (GLAST)           
1 33053U 08029A   22208.81802914  .00001023  00000+0  40730-4 0  9993
2 33053  25.5819 251.9146 0011658 288.7167  71.2103 15.12291355779814
WISE                    
1 36119U 09071A   22208.84149946  .00003658  00000+0  11326-3 0  9993
2 36119  97.2370 242.4655 0003455 131.3327 228.8214 15.34079697701696
TDRS 11                 
1 39070U 13004A   22209.18870069  .00000085  00000+0  00000+0 0  9992
2 39070   2.8935 347.1969 0007115  77.5137 134.6419  1.00269834 34740
TDRS 12                 
1 39504U 14004A   22209.10812222 -.00000263  00000+0  00000+0 0  9993
2 39504   3.8247 347.9881 0004919 141.5251 174.0793  1.00265321 31206
GPM-CORE                
1 39574U 14009C   22208.80400461  .00009872  00000+0  14758-3 0  9992
2 39574  65.0016  50.9141 0009736 269.8697  90.1334 15.55470328477884
MMS 1                   
1 40482U 15011A   22206.86624109 -.00002217  00000+0  00000+0 0  9995
2 40482  31.6941 102.3666 8729163  55.6248  67.7926  0.28423520 13416
MMS 2                   
1 40483U 15011B   22207.34144171 -.00002210  00000+0  00000+0 0  9999
2 40483  31.6682 102.3253 8730531  55.6651 116.4295  0.28431223 13476
MMS 3                   
1 40484U 15011C   22208.99887998 -.00002132  00000+0  00000+0 0  9996
2 40484  31.6397 102.2123 8730026  55.7780 286.0156  0.28420763 13150
MMS 4                   
1 40485U 15011D   22208.99887998 -.00002132  00000+0  00000+0 0  9997
2 40485  31.6387 102.2114 8730691  55.7908 285.9637  0.28427752 13360
TDRS 13                 
1 42915U 17047A   22208.75522681 -.00000091  00000+0  00000+0 0  9999
2 42915   4.4204 333.8316 0019019 119.7320 112.2296  1.00272611 18100
JPSS-1                  
1 43013U 17073A   22209.52715001  .00000005  00000+0  23209-4 0  9999
2 43013  98.7170 147.4419 0000903  65.2013 294.9257 14.19563378243053
